KIND 051454Z 10010KT 10SM SCT024 BKN048 11/06 A2974 RMK AO2 SLP072 60000 T01060061 58009
KIND 051437Z 12005KT 10SM SCT022 BKN050 BKN100 11/06 A2976 RMK AO2 T01060061
KIND 051410Z 21004KT 10SM BKN022 BKN060 BKN095 09/06 A2979 RMK AO2 TCU DSNT E-SE T00940056
KIND 051354Z 12007KT 10SM SCT026 BKN075 BKN095 09/06 A2978 RMK AO2 RAE07B26E48 SLP083 P0000 T00940061
KIND 051254Z 10012KT 10SM -RA FEW019 SCT055 BKN070 OVC130 08/04 A2978 RMK AO2 RAB34 SLP087 CB DSNT W-NE MOV NE P0000 T00830044
KIND 051154Z 08017G25KT 10SM FEW040 SCT080 SCT100 OVC160 08/04 A2977 RMK AO2 LTG DSNT SW AND NW SLP081 OCNL LTGCG DSNT NW CB DSNT SW-NW MOV NE 60000 T00830039 10089 20083 58015
KIND 051054Z 08014KT 10SM BKN070 BKN140 OVC250 08/04 A2981 RMK AO2 SLP095 T00830039
KIND 050954Z 09012G21KT 10SM BKN075 BKN100 BKN110 OVC150 08/04 A2981 RMK AO2 RAB44E51 SLP094 P0000 T00830039
KIND 050854Z 10016G20KT 10SM FEW070 BKN090 BKN110 OVC150 08/04 A2982 RMK AO2 SLP096 T00830039 58018
KIND 050754Z 07013KT 10SM OVC100 09/04 A2983 RMK AO2 SLP101 T00890039
KIND 050654Z 08013KT 10SM SCT070 BKN120 OVC150 09/04 A2986 RMK AO2 SLP112 T00890039
KIND 050554Z 06011KT 10SM FEW090 BKN250 09/04 A2987 RMK AO2 SLP116 T00890044 10122 20089 58013
KIND 050454Z 05007KT 10SM SCT090 BKN250 09/06 A2991 RMK AO2 SLP129 T00940056 401670094
KIND 050354Z 03010KT 10SM FEW035 BKN100 OVC250 11/06 A2991 RMK AO2 SLP128 T01060061
KIND 050254Z 03009KT 10SM FEW040 BKN120 BKN250 11/07 A2991 RMK AO2 SLP129 T01060072 53010
KIND 050154Z 04007KT 10SM SCT100 BKN150 BKN200 11/08 A2990 RMK AO2 SLP126 T01110078
KIND 050054Z 35009KT 10SM FEW050 BKN100 BKN200 12/08 A2988 RMK AO2 SLP120 T01170078
KIND 042354Z 34008KT 10SM FEW028 BKN050 OVC200 12/08 A2988 RMK AO2 SLP117 T01220083 10167 20122 52027
KIND 042254Z 34012KT 10SM FEW028 BKN041 OVC200 13/09 A2986 RMK AO2 SLP110 T01330089
KIND 042154Z 30012KT 10SM FEW033 BKN047 16/09 A2982 RMK AO2 SLP097 T01560089
KIND 042054Z 28013KT 10SM SCT033 BKN044 16/08 A2980 RMK AO2 SLP090 T01560083 53008
KIND 041954Z 28014G18KT 10SM FEW024 BKN041 15/08 A2978 RMK AO2 SLP085 T01500083
KIND 041928Z 25015G23KT 10SM SCT024 BKN037 15/09 A2978 RMK AO2 T01500089
KIND 041854Z 25014KT 10SM BKN024 BKN032 14/09 A2978 RMK AO2 SLP085 T01390094
KIND 041754Z 26016KT 10SM BKN024 OVC031 14/09 A2977 RMK AO2 SLP082 60000 T01390094 10139 20117 51023
KIND 041654Z 24013KT 10SM BKN020 OVC025 13/10 A2975 RMK AO2 RAB28E52 SLP074 P0000 T01280100
KIND 041554Z 26013G22KT 10SM BKN017 BKN022 OVC038 13/09 A2973 RMK AO2 SLP068 T01330094
KIND 041454Z 26017KT 10SM SCT013 BKN017 OVC029 13/10 A2970 RMK AO2 RAB09E19 SLP057 P0000 60000 T01280100 53028
KIND 041354Z 26015KT 10SM SCT017 BKN027 OVC037 12/09 A2967 RMK AO2 SLP047 T01220094
KIND 041254Z 26014KT 10SM BKN016 OVC025 12/09 A2965 RMK AO2 SLP038 T01170094
KIND 041154Z 25017KT 10SM FEW016 BKN022 OVC028 12/09 A2962 RMK AO2 SLP028 60001 70027 T01170094 10133 20117 53031
KIND 041141Z 26013KT 10SM SCT016 SCT022 OVC028 12/09 A2960 RMK AO2 T01170094
KIND 041054Z 26017KT 10SM BKN014 OVC022 12/09 A2959 RMK AO2 SLP016 T01170094 $
KIND 040954Z 26016G21KT 10SM BKN012 OVC022 12/10 A2955 RMK AO2 SLP002 T01170100 $
KIND 040945Z 26016KT 10SM BKN012 OVC022 12/10 A2955 RMK AO2 T01170100 $
KIND 040854Z 26019KT 10SM BKN017 OVC032 12/10 A2953 RMK AO2 PK WND 27026/0843 SLP995 60001 T01220100 53027 $
KIND 040754Z 26016KT 10SM BKN016 OVC022 13/11 A2948 RMK AO2 SLP980 T01280111 $
KIND 040654Z 25019KT 10SM BKN016 BKN022 13/12 A2946 RMK AO2 RAE07 SLP972 P0001 T01330117 $
KIND 040605Z 23014KT 10SM -RA BKN015 OVC022 13/12 A2945 RMK AO2 P0001 T01330122 $
KIND 040554Z 23013KT 9SM -RA BKN013 OVC019 13/12 A2945 RMK AO2 RAB0458 SLP968 P0003 60017 T01330122 10172 20122 53008 $
KIND 040523Z 23012KT 7SM -RA BKN017 BKN028 OVC039 14/12 A2944 RMK AO2 RAB0458 P0003 T01390122 $
KIND 040454Z 24010KT 10SM FEW015 BKN039 BKN065 14/12 A2944 RMK AO2 SLP964 T01390122 402110106 $
