KLAX 051553Z VRB03KT 6SM HZ FEW018 SCT140 BKN160 18/13 A3005 RMK AO2 SLP174 T01830133
KLAX 051453Z VRB03KT 6SM BR FEW015 SCT110 BKN160 16/13 A3005 RMK AO2 SLP176 T01560133 53007
KLAX 051353Z 00000KT 5SM BR FEW008 FEW014 BKN160 14/13 A3004 RMK AO2 SLP172 T01390133
KLAX 051253Z 33004KT 8SM FEW007 FEW012 BKN200 14/13 A3003 RMK AO2 SLP167 T01390133
KLAX 051247Z 31004KT 8SM FEW007 FEW012 BKN200 14/13 A3003 RMK AO2 T01390133
KLAX 051153Z 26005KT 8SM FEW014 FEW200 13/13 A3003 RMK AO2 SLP168 T01330128 10144 20133 56006
KLAX 051053Z 25005KT 8SM FEW014 FEW200 14/13 A3003 RMK AO2 SLP168 T01390128
KLAX 050953Z 31004KT 8SM FEW014 FEW200 14/13 A3004 RMK AO2 SLP170 T01390128
KLAX 050853Z 00000KT 9SM FEW014 FEW200 13/13 A3005 RMK AO2 SLP174 T01330128 50004
KLAX 050753Z 00000KT 10SM FEW200 14/13 A3005 RMK AO2 SLP175 T01440128 401940139
KLAX 050653Z 25005KT 10SM FEW200 14/13 A3005 RMK AO2 SLP174 T01390128
KLAX 050553Z 27004KT 10SM FEW200 14/13 A3004 RMK AO2 SLP170 T01390128 10178 20139 51012
KLAX 050453Z 25005KT 9SM FEW200 14/13 A3003 RMK AO2 SLP168 T01440128
KLAX 050353Z 26007KT 9SM FEW200 14/13 A3002 RMK AO2 SLP165 T01440128
KLAX 050253Z 26008KT 10SM BKN200 15/13 A3000 RMK AO2 SLP160 T01500128 53005
KLAX 050153Z 25010KT 8SM BKN200 16/12 A2999 RMK AO2 SLP155 T01560122
KLAX 050053Z 26010KT 9SM BKN200 17/12 A2998 RMK AO2 SLP151 T01670122
KLAX 042353Z 26015KT 10SM SCT200 17/12 A2999 RMK AO2 SLP153 T01720117 10194 20172 55007
KLAX 042253Z 25015KT 10SM FEW200 18/12 A2998 RMK AO2 SLP152 T01830117
KLAX 042153Z 26015KT 10SM FEW200 18/12 A2999 RMK AO2 SLP155 T01830117
KLAX 042053Z 26011KT 10SM FEW160 18/12 A3001 RMK AO2 SLP160 T01830117 58008
KLAX 041953Z 27009KT 10SM FEW120 19/12 A3002 RMK AO2 SLP165 T01890117
KLAX 041853Z 23008KT 8SM FEW027 SCT100 18/11 A3003 RMK AO2 SLP168 T01830111
KLAX 041753Z 23008KT 8SM SCT024 18/11 A3003 RMK AO2 SLP168 T01830111 10183 20139 53003
KLAX 041653Z 00000KT 8SM SCT022 17/11 A3002 RMK AO2 SLP166 T01720106
KLAX 041629Z VRB04KT 8SM SCT022 16/11 A3002 RMK AO2 T01610106
KLAX 041553Z 13006KT 8SM BKN021 16/11 A3002 RMK AO2 SLP165 T01610106
KLAX 041453Z VRB03KT 10SM BKN021 15/11 A3002 RMK AO2 SLP166 T01500106 53018
KLAX 041353Z 10007KT 070V140 7SM OVC020 14/10 A2999 RMK AO2 SLP156 T01390100
KLAX 041253Z 09005KT 10SM BKN020 14/10 A2998 RMK AO2 SLP152 T01440100
KLAX 041153Z 00000KT 10SM OVC020 14/11 A2997 RMK AO2 SLP147 T01440106 10150 20144 53001
KLAX 041053Z 25004KT 10SM OVC018 14/12 A2996 RMK AO2 SLP145 T01440117
KLAX 040953Z 00000KT 10SM BKN022 14/11 A2997 RMK AO2 SLP146 T01440111
KLAX 040853Z 18004KT 10SM OVC023 14/11 A2997 RMK AO2 SLP145 T01440106 53002
KLAX 040753Z 00000KT 10SM BKN020 14/11 A2996 RMK AO2 SLP146 T01440106 401780133
KLAX 040653Z 13003KT 10SM BKN019 14/11 A2996 RMK AO2 SLP145 T01440111
KLAX 040553Z 10003KT 10SM BKN019 14/11 A2996 RMK AO2 SLP143 T01440111 10161 20139 51015
KLAX 040453Z 20005KT 10SM BKN019 14/11 A2995 RMK AO2 SLP140 T01440111
