KORD 051551Z 05015KT 6SM -RA BR FEW007 BKN023 OVC029 06/04 A2978 RMK AO2 PRESFR SLP088 P0008 T00610044 $
KORD 051532Z 07012G21KT 4SM RA BR FEW009 BKN022 OVC028 07/04 A2981 RMK AO2 P0007 T00670044 $
KORD 051459Z 07010KT 3SM RA BR SCT009 BKN014 OVC023 07/04 A2983 RMK AO2 T00670044 PNO
KORD 051451Z 06010KT 2 1/2SM RA BR SCT009 SCT014 OVC024 07/04 A2983 RMK AO2 SLP104 P0017 60025 T00670044 56013
KORD 051442Z 07012G19KT 2 1/2SM RA BR FEW009 SCT013 OVC024 07/04 A2983 RMK AO2 P0016 T00670044
KORD 051426Z 07011KT 4SM -RA BR BKN024 OVC031 07/04 A2984 RMK AO2 P0015 T00670044
KORD 051351Z 07012KT 3SM RA SCT025 OVC033 07/04 A2984 RMK AO2 SLP109 P0002 T00670039
KORD 051349Z 07010KT 3SM RA BR SCT025 OVC033 07/04 A2985 RMK AO2 P0002
KORD 051251Z 08009KT 3SM RA BR OVC028 06/04 A2987 RMK AO2 SLP117 P0006 T00610039 $
KORD 051211Z 09008KT 3SM RA OVC029 07/04 A2987 RMK AO2 T00670039 PNO $
KORD 051151Z 08009KT 4SM RA BR OVC030 07/04 A2987 RMK AO2 SLP115 P0002 60005 70009 T00670044 10083 20067 56023
KORD 051144Z 07008KT 4SM RA OVC032 07/04 A2986 RMK AO2 P0002 T00670039
KORD 051051Z 07010KT 7SM -RA OVC035 07/04 A2987 RMK AO2 SLP117 P0002 T00670039
KORD 050951Z 07008KT 10SM -RA OVC050 07/04 A2989 RMK AO2 RAB17 SLP125 P0001 T00720039
KORD 050851Z 08006KT 10SM OVC065 08/03 A2994 RMK AO2 SLP138 T00780033 53007
KORD 050751Z 05009KT 10SM OVC120 08/04 A2992 RMK AO2 SLP133 T00830039
KORD 050651Z 02005KT 10SM OVC160 08/05 A2992 RMK AO2 SLP133 T00830050
KORD 050551Z 05004KT 10SM OVC160 08/05 A2991 RMK AO2 SLP131 T00830050 10111 20061 401330061 56001
KORD 050451Z 10003KT 10SM BKN160 09/04 A2992 RMK AO2 SLP133 T00890044
KORD 050351Z 10003KT 10SM BKN180 07/04 A2990 RMK AO2 SLP129 T00720044
KORD 050251Z 00000KT 10SM FEW045 SCT200 BKN250 08/04 A2992 RMK AO2 SLP133 T00780039 50008
KORD 050151Z 17003KT 10SM FEW045 BKN220 OVC250 08/04 A2992 RMK AO2 SLP133 T00830044
KORD 050051Z 17005KT 10SM FEW035 SCT220 BKN250 09/04 A2991 RMK AO2 SLP131 T00890044
KORD 042351Z 08005KT 10SM BKN035 BKN200 OVC250 11/05 A2989 RMK AO2 SLP123 T01110050 10133 20111 53027
KORD 042251Z 04004KT 10SM BKN044 OVC200 12/05 A2985 RMK AO2 SLP111 T01220050
KORD 042151Z 09006KT 10SM BKN045 OVC200 12/06 A2984 RMK AO2 SLP105 T01170056
KORD 042051Z 03009KT 10SM OVC035 12/06 A2981 RMK AO2 SLP095 T01220056 53017
KORD 041951Z 01007KT 10SM OVC033 13/06 A2978 RMK AO2 SLP087 T01280056
KORD 041851Z 30005KT 10SM BKN031 BKN250 12/05 A2978 RMK AO2 SLP084 T01170050
KORD 041840Z VRB04KT 10SM FEW025 BKN033 13/05 A2978 RMK AO2 T01280050
KORD 041818Z 34006KT 10SM BKN026 OVC032 11/05 A2978 RMK AO2 T01110050
KORD 041751Z 36006KT 10SM SCT022 OVC030 11/05 A2976 RMK AO2 SLP077 60004 T01110050 10111 20083 51019
KORD 041749Z 01005KT 10SM SCT022 OVC030 11/06 A2975 RMK AO2
KORD 041651Z 34011KT 10SM BKN021 OVC034 11/06 A2973 RMK AO2 SLP069 T01060061
KORD 041644Z 36009KT 10SM BKN021 OVC029 10/06 A2972 RMK AO2 T01000056
KORD 041617Z 34011KT 10SM SCT019 OVC026 10/06 A2972 RMK AO2 T01000061
KORD 041551Z 34012KT 10SM BKN016 BKN022 OVC030 10/06 A2970 RMK AO2 SLP058 P0003 T01000061
KORD 041537Z 33011KT 10SM BKN016 BKN021 OVC028 09/07 A2969 RMK AO2 P0003 T00940067
KORD 041451Z 31011KT 9SM BKN011 BKN014 OVC037 09/07 A2965 RMK AO2 RAE11 SLP042 P0000 60001 T00890067 53017
KORD 041443Z 31011KT 8SM OVC011 09/07 A2965 RMK AO2 RAE11 P0000 T00890067
KORD 041418Z 30009KT 5SM BR BKN009 OVC037 08/07 A2964 RMK AO2 RAE11 P0000 T00830067
KORD 041409Z 30012KT 3SM -RA BR SCT007 OVC037 08/07 A2963 RMK AO2 P0000 T00830072
KORD 041351Z 30011KT 2SM -RA BR SCT007 OVC033 08/07 A2962 RMK AO2 RAB01 SLP032 P0001 T00830067
KORD 041346Z 30010KT 2SM -RA BR SCT007 OVC033 08/07 A2962 RMK AO2 RAB01 P0001
KORD 041331Z 28009KT 2 1/2SM -RA BR FEW009 BKN022 OVC033 08/07 A2962 RMK AO2 RAB01 P0001 T00830067
KORD 041320Z 28009KT 3SM -RA BR FEW009 OVC022 08/06 A2961 RMK AO2 TWR VIS 4 RAB01 P0000 T00830061
KORD 041317Z 28010KT 6SM -RA BR FEW010 OVC022 08/06 A2961 RMK AO2 RAB01 P0000 T00830061
KORD 041251Z 27010KT 10SM BKN022 OVC035 08/06 A2960 RMK AO2 SLP025 T00830061
KORD 041151Z 29012KT 10SM FEW015 OVC040 08/06 A2955 RMK AO2 SLP008 60001 70020 T00830061 10089 20083 51035
KORD 041142Z 29010KT 10SM SCT015 OVC040 08/06 A2955 RMK AO2 T00830061
KORD 041051Z 28009KT 10SM BKN013 BKN038 OVC060 08/06 A2952 RMK AO2 SLP998 T00830061
KORD 040951Z 31012KT 10SM OVC011 08/06 A2948 RMK AO2 SLP984 T00830061
KORD 040851Z 30012KT 10SM BKN010 OVC041 08/06 A2944 RMK AO2 SLP972 60001 T00830061 51020
KORD 040751Z 30012KT 10SM OVC008 08/07 A2943 RMK AO2 RAE0656 SLP967 P0000 T00830067
KORD 040743Z 30010KT 10SM OVC009 08/07 A2942 RMK AO2 RAE0656 P0000 T00830067
KORD 040703Z 29010KT 10SM OVC010 09/07 A2941 RMK AO2 RAE0656 P0000 T00890067
KORD 040651Z 30010KT 10SM -RA OVC009 09/07 A2941 RMK AO2 RAB25 SLP960 P0001 T00890067
KORD 040551Z 31013KT 10SM OVC009 09/07 A2939 RMK AO2 SLP951 60005 T00890067 10089 20078 401220078 53005
KORD 040451Z 32011KT 10SM OVC008 08/07 A2937 RMK AO2 DZE24 SLP945 P0001 T00830067
KORD 040425Z 32009KT 8SM OVC008 08/07 A2937 RMK AO2 DZE24 P0001 T00830067
